NORAD_CAT_ID,OBJECT_NAME,OBJECT_TYPE,EPOCH,MEAN_MOTION,ECCENTRICITY,INCLINATION,RA_OF_ASC_NODE,ARG_OF_PERICENTER,MEAN_ANOMALY,BSTAR,MEAN_MOTION_DOT,MEAN_MOTION_DDOT,TLE_LINE0,TLE_LINE1,TLE_LINE2,SEMIMAJOR_AXIS,PERIOD,APOGEE,PERIGEE,DECAYED
53897.0,STARLINK-5035,PAYLOAD,2024-04-23 08:42:58,15.08836961,0.0001045,53.2164,160.6639,85.5811,274.5301,0.00039031,5.929e-05,0.0,0 STARLINK-5035,1 53897U 22119M   24114.36317397  .00005929  00000-0  39031-3 0  9992,2 53897  53.2164 160.6639 0001045  85.5811 274.5301 15.08836961 88223,6917.89,95.438,540.478,539.032,0.0
53897.0,STARLINK-5035,PAYLOAD,2024-04-24 11:44:31,15.08842005,0.0001163,53.2156,155.6078,103.1738,256.9384,0.00026208,3.886e-05,0.0,0 STARLINK-5035,1 53897U 22119M   24115.48925515  .00003886  00000-0  26208-3 0  9995,2 53897  53.2156 155.6078 0001163 103.1738 256.9384 15.08842005 87973,6917.874,95.437,540.544,538.935,0.0
53897.0,STARLINK-5035,PAYLOAD,2024-04-25 11:35:18,15.08849633,0.0001193,53.2151,151.1493,106.8634,253.2489,0.0003075,4.611e-05,0.0,0 STARLINK-5035,1 53897U 22119M   24116.48285186  .00004611  00000-0  30750-3 0  9993,2 53897  53.2151 151.1493 0001193 106.8634 253.2489 15.08849633 88542,6917.851,95.437,540.541,538.891,0.0
53897.0,STARLINK-5035,PAYLOAD,2024-04-25 22:43:00,15.08847339,0.000134,53.215,149.0683,93.4274,266.6871,0.00020726,3.013e-05,0.0,0 STARLINK-5035,1 53897U 22119M   24116.94653247  .00003013  00000-0  20726-3 0  9998,2 53897  53.2150 149.0683 0001340  93.4274 266.6871 15.08847339 88615,6917.858,95.437,540.65,538.796,0.0
53897.0,STARLINK-5035,PAYLOAD,2024-04-26 01:53:46,15.08848136,0.0001546,53.214,148.4776,72.9945,287.1216,0.00021989,3.214e-05,0.0,0 STARLINK-5035,1 53897U 22119M   24117.07901355  .00003214  00000-0  21989-3 0  9994,2 53897  53.2140 148.4776 0001546  72.9945 287.1216 15.08848136 88218,6917.856,95.437,540.79,538.651,0.0
53897.0,STARLINK-5035,PAYLOAD,2024-04-26 11:26:05,15.08843012,0.0001513,53.2151,146.6921,79.8339,280.2823,2.0965e-05,4.6e-07,0.0,0 STARLINK-5035,1 53897U 22119M   24117.47645481  .00000046  00000-0  20965-4 0  9997,2 53897  53.2151 146.6921 0001513  79.8339 280.2823 15.08843012 88697,6917.871,95.437,540.783,538.69,0.0
53897.0,STARLINK-5035,PAYLOAD,2024-04-27 11:16:51,15.08856453,0.0001393,53.2146,142.2284,92.725,267.3901,0.00023637,3.478e-05,0.0,0 STARLINK-5035,1 53897U 22119M   24118.47004359  .00003478  00000-0  23637-3 0  9991,2 53897  53.2146 142.2284 0001393  92.7250 267.3901 15.08856453 88424,6917.83,95.437,540.659,538.731,0.0
53897.0,STARLINK-5035,PAYLOAD,2024-04-28 04:46:06,15.08850443,0.0001579,53.2146,138.9571,98.1725,261.9446,0.00021204,3.089e-05,0.0,0 STARLINK-5035,1 53897U 22119M   24119.19868191  .00003089  00000-0  21204-3 0  9999,2 53897  53.2146 138.9571 0001579  98.1725 261.9446 15.08850443 88537,6917.848,95.437,540.806,538.621,0.0
53897.0,STARLINK-5035,PAYLOAD,2024-04-28 06:21:29,15.0885056,0.0001493,53.2158,138.658,100.7068,259.4092,0.00020181,2.926e-05,0.0,0 STARLINK-5035,1 53897U 22119M   24119.26492125  .00002926  00000-0  20181-3 0  9999,2 53897  53.2158 138.6580 0001493 100.7068 259.4092 15.08850560 88968,6917.848,95.437,540.746,538.68,0.0
53897.0,STARLINK-5035,PAYLOAD,2024-04-29 04:36:54,15.08832567,0.0001515,53.2169,134.4944,103.204,256.9121,-0.00011282,-2.083e-05,0.0,0 STARLINK-5035,1 53897U 22119M   24120.19229437 -.00002083  00000-0 -11282-3 0  9995,2 53897  53.2169 134.4944 0001515 103.2040 256.9121 15.08832567 88682,6917.903,95.438,540.816,538.72,0.0
53897.0,STARLINK-5035,PAYLOAD,2024-04-29 10:58:27,15.08828586,0.000132,53.2161,133.3074,92.1242,267.9901,-0.00017134,-3.013e-05,0.0,0 STARLINK-5035,1 53897U 22119M   24120.45725969 -.00003013  00000-0 -17134-3 0  9991,2 53897  53.2161 133.3074 0001320  92.1242 267.9901 15.08828586 89146,6917.915,95.438,540.693,538.867,0.0
53897.0,STARLINK-5035,PAYLOAD,2024-04-29 17:19:59,15.08829023,0.0001365,53.2165,132.1184,93.4307,266.6842,-0.00015961,-2.826e-05,0.0,0 STARLINK-5035,1 53897U 22119M   24120.72222042 -.00002826  00000-0 -15961-3 0  9992,2 53897  53.2165 132.1184 0001365  93.4307 266.6842 15.08829023 89185,6917.914,95.438,540.723,538.835,0.0
53897.0,STARLINK-5035,PAYLOAD,2024-04-30 07:38:28,15.08827281,0.0001361,53.2168,129.4423,91.8684,268.2464,-1.8782e-05,-5.87e-06,0.0,0 STARLINK-5035,1 53897U 22119M   24121.31838105 -.00000587  00000-0 -18782-4 0  9998,2 53897  53.2168 129.4423 0001361  91.8684 268.2464 15.08827281 88854,6917.919,95.438,540.726,538.843,0.0
53897.0,STARLINK-5035,PAYLOAD,2024-04-30 17:10:47,15.08826633,0.0001297,53.2165,127.6583,92.3272,267.7869,2.7686e-05,1.53e-06,0.0,0 STARLINK-5035,1 53897U 22119M   24121.71582347  .00000153  00000-0  27686-4 0  9996,2 53897  53.2165 127.6583 0001297  92.3272 267.7869 15.08826633 89332,6917.921,95.438,540.684,538.889,0.0
53897.0,STARLINK-5035,PAYLOAD,2024-05-01 07:29:15,15.08826927,0.0001314,53.2163,124.9823,93.2544,266.8598,0.0001525,2.139e-05,0.0,0 STARLINK-5035,1 53897U 22119M   24122.31198462  .00002139  00000-0  15250-3 0  9993,2 53897  53.2163 124.9823 0001314  93.2544 266.8598 15.08826927 89424,6917.92,95.438,540.694,538.876,0.0
53897.0,STARLINK-5035,PAYLOAD,2024-05-01 17:01:34,15.0883176,0.0001323,53.2164,123.1979,92.234,267.8804,0.00015467,2.174e-05,0.0,0 STARLINK-5035,1 53897U 22119M   24122.70942411  .00002174  00000-0  15467-3 0  9996,2 53897  53.2164 123.1979 0001323  92.2340 267.8804 15.08831760 89063,6917.906,95.438,540.686,538.855,0.0
53897.0,STARLINK-5035,PAYLOAD,2024-05-02 08:55:25,15.08842389,0.0001324,53.2162,120.2243,93.2911,266.8232,0.0001564,2.202e-05,0.0,0 STARLINK-5035,1 53897U 22119M   24123.37181940  .00002202  00000-0  15640-3 0  9997,2 53897  53.2162 120.2243 0001324  93.2911 266.8232 15.08842389 89163,6917.873,95.437,540.654,538.822,0.0
53897.0,STARLINK-5035,PAYLOAD,2024-05-03 07:10:48,15.08847579,0.0001381,53.2163,116.0608,89.0942,271.0208,9.0851e-05,1.159e-05,0.0,0 STARLINK-5035,1 53897U 22119M   24124.29917545  .00001159  00000-0  90851-4 0  9995,2 53897  53.2163 116.0608 0001381  89.0942 271.0208 15.08847579 89721,6917.857,95.437,540.678,538.767,0.0
53897.0,STARLINK-5035,PAYLOAD,2024-05-03 16:43:07,15.08850265,0.0001408,53.2168,114.2768,90.1736,269.9417,8.3478e-05,1.041e-05,0.0,0 STARLINK-5035,1 53897U 22119M   24124.69661134  .00001041  00000-0  83478-4 0  9996,2 53897  53.2168 114.2768 0001408  90.1736 269.9417 15.08850265 89361,6917.849,95.437,540.688,538.74,0.0
53897.0,STARLINK-5035,PAYLOAD,2024-05-03 23:04:40,15.08843911,0.0002021,53.2165,113.0873,89.1867,270.9356,-1.7942e-05,-5.74e-06,0.0,0 STARLINK-5035,1 53897U 22119M   24124.96157953 -.00000574  00000-0 -17942-4 0  9990,2 53897  53.2165 113.0873 0002021  89.1867 270.9356 15.08843911 89822,6917.868,95.437,541.132,538.335,0.0
53897.0,STARLINK-5035,PAYLOAD,2024-05-04 05:26:13,15.08835503,0.0001441,53.2166,111.8974,96.1961,263.9195,-8.3487e-05,-1.616e-05,0.0,0 STARLINK-5035,1 53897U 22119M   24125.22654533 -.00001616  00000-0 -83487-4 0  9991,2 53897  53.2166 111.8974 0001441  96.1961 263.9195 15.08835503 89448,6917.894,95.438,540.756,538.762,0.0
53897.0,STARLINK-5035,PAYLOAD,2024-05-04 16:33:55,15.08841566,0.0001416,53.2168,109.8167,93.87,266.2454,-7.0551e-05,-1.411e-05,0.0,0 STARLINK-5035,1 53897U 22119M   24125.69022131 -.00001411  00000-0 -70551-4 0  9996,2 53897  53.2168 109.8167 0001416  93.8700 266.2454 15.08841566 89516,6917.876,95.437,540.72,538.761,0.0
53897.0,STARLINK-5035,PAYLOAD,2024-05-05 08:27:45,15.08848816,0.0001329,53.2168,106.8423,93.5978,266.5167,-1.7423e-05,-5.65e-06,0.0,0 STARLINK-5035,1 53897U 22119M   24126.35261429 -.00000565  00000-0 -17423-4 0  9993,2 53897  53.2168 106.8423 0001329  93.5978 266.5167 15.08848816 89615,6917.853,95.437,540.638,538.799,0.0
53897.0,STARLINK-5035,PAYLOAD,2024-05-05 22:46:14,15.0883624,0.0001387,53.2168,104.1659,100.4073,259.7075,0.00013979,1.937e-05,0.0,0 STARLINK-5035,1 53897U 22119M   24126.94877610  .00001937  00000-0  13979-3 0  9996,2 53897  53.2168 104.1659 0001387 100.4073 259.7075 15.08836240 90123,6917.892,95.438,540.716,538.797,0.0
53897.0,STARLINK-5035,PAYLOAD,2024-05-06 05:07:46,15.0883736,0.0001369,53.217,102.9771,97.5683,262.5465,0.00014516,2.023e-05,0.0,0 STARLINK-5035,1 53897U 22119M   24127.21373668  .00002023  00000-0  14516-3 0  9996,2 53897  53.2170 102.9771 0001369  97.5683 262.5465 15.08837360 89745,6917.888,95.438,540.701,538.806,0.0
53897.0,STARLINK-5035,PAYLOAD,2024-05-07 03:23:10,15.08841397,0.0001396,53.2176,98.8139,96.0098,264.1053,4.8594e-05,4.86e-06,0.0,0 STARLINK-5035,1 53897U 22119M   24128.14109697  .00000486  00000-0  48594-4 0  9993,2 53897  53.2176  98.8139 0001396  96.0098 264.1053 15.08841397 90306,6917.876,95.437,540.707,538.775,0.0
53897.0,STARLINK-5035,PAYLOAD,2024-05-07 14:30:52,15.08847438,0.0001348,53.2175,96.7319,94.5561,265.5586,5.8235e-05,6.39e-06,0.0,0 STARLINK-5035,1 53897U 22119M   24128.60477163  .00000639  00000-0  58235-4 0  9993,2 53897  53.2175  96.7319 0001348  94.5561 265.5586 15.08847438 89954,6917.858,95.437,540.655,538.79,0.0
53897.0,STARLINK-5035,PAYLOAD,2024-05-07 22:27:48,15.08837665,0.0002064,53.2197,95.2498,106.1316,253.9904,1.5527e-05,-4.1e-07,0.0,0 STARLINK-5035,1 53897U 22119M   24128.93597664 -.00000041  00000-0  15527-4 0  9993,2 53897  53.2197  95.2498 0002064 106.1316 253.9904 15.08837665 90424,6917.888,95.438,541.18,538.325,0.0
53897.0,STARLINK-5035,PAYLOAD,2024-05-08 04:49:21,15.08833787,0.0001486,53.2187,94.0589,103.5334,256.5824,-3.1904e-05,-7.96e-06,0.0,0 STARLINK-5035,1 53897U 22119M   24129.20094451 -.00000796  00000-0 -31904-4 0  9995,2 53897  53.2187  94.0589 0001486 103.5334 256.5824 15.08833787 90048,6917.899,95.438,540.792,538.736,0.0
53897.0,STARLINK-5035,PAYLOAD,2024-05-08 06:24:44,15.08834363,0.0001485,53.2188,93.7612,102.359,257.7568,-2.8177e-05,-7.36e-06,0.0,0 STARLINK-5035,1 53897U 22119M   24129.26718434 -.00000736  00000-0 -28177-4 0  9997,2 53897  53.2188  93.7612 0001485 102.3590 257.7568 15.08834363 90478,6917.898,95.438,540.79,538.735,0.0
